0 FENGYUN 1C DEB
1 36654U 99025DXY 13294.54274093  .00007680  00000-0  16085-2 0  1728
2 36654 099.5434 179.5408 0279929 226.2427 250.4536 14.38336194223034
